STARLINK-35124          
1 65511U 25198V   26068.81983033  .00004006  00000+0  14744-3 0  9992
2 65511  53.1587 270.1344 0001321  60.2802 299.8330 15.30170001 28636
KUIPER-00175            
1 67135U 25301C   26068.97960463  .00019968  00000+0  66732-3 0  9998
2 67135  51.8781  63.6978 0002279  50.5695 309.5490 15.30996371 13854
